{
  "type": "FeatureCollection",
  "features": [
    {
      "type": "Feature",
      "properties": {
        "norad_id": 34492,
        "name": "IRIDIUM 33 DEB",
        "group": "iridium-33-debris",
        "lat": 28.491250150862985,
        "lon": -20.082703646536498,
        "alt_km": 879.5739350948497,
        "timestamp": "2025-12-04T09:47:37.904979+00:00",
        "meta_object_name": "IRIDIUM 33 DEB",
        "meta_object_id": "1997-051GH",
        "meta_epoch": "2025-12-03T10:48:32.344704",
        "meta_mean_motion": 14.25280236,
        "meta_eccentricity": 0.0190283,
        "meta_inclination": 86.4711,
        "meta_ra_of_asc_node": 338.3846,
        "meta_arg_of_pericenter": 268.3385,
        "meta_mean_anomaly": 247.4972,
        "meta_ephemeris_type": 0,
        "meta_classification_type": "U",
        "meta_norad_cat_id": 34492,
        "meta_element_set_no": 999,
        "meta_rev_at_epoch": 84926,
        "meta_bstar": 0.008581153,
        "meta_mean_motion_dot": 0.00024475,
        "meta_mean_motion_ddot": 0,
        "tle_line1": "1 34492U 97051GH  25337.45037436  .00024475  00000+0  85812-2 0  9993",
        "tle_line2": "2 34492  86.4711 338.3846 0190283 268.3385 247.4972 14.25280236849261"
      },
      "geometry": {
        "type": "Point",
        "coordinates": [
          -20.082703646536498,
          28.491250150862985
        ]
      }
    },
    {
      "type": "Feature",
      "properties": {
        "norad_id": 34497,
        "name": "IRIDIUM 33 DEB",
        "group": "iridium-33-debris",
        "lat": -28.50416840889539,
        "lon": -122.01405652717251,
        "alt_km": 859.479224730755,
        "timestamp": "2025-12-04T09:47:37.904988+00:00",
        "meta_object_name": "IRIDIUM 33 DEB",
        "meta_object_id": "1997-051GN",
        "meta_epoch": "2025-12-03T06:10:51.201984",
        "meta_mean_motion": 14.27408211,
        "meta_eccentricity": 0.0079856,
        "meta_inclination": 86.2784,
        "meta_ra_of_asc_node": 56.4516,
        "meta_arg_of_pericenter": 10.3771,
        "meta_mean_anomaly": 49.8757,
        "meta_ephemeris_type": 0,
        "meta_classification_type": "U",
        "meta_norad_cat_id": 34497,
        "meta_element_set_no": 999,
        "meta_rev_at_epoch": 86748,
        "meta_bstar": 0.00083815,
        "meta_mean_motion_dot": 2.144e-05,
        "meta_mean_motion_ddot": 0,
        "tle_line1": "1 34497U 97051GN  25337.25753706  .00002144  00000+0  83815-3 0  9992",
        "tle_line2": "2 34497  86.2784  56.4516 0079856  10.3771  49.8757 14.27408211867488"
      },
      "geometry": {
        "type": "Point",
        "coordinates": [
          -122.01405652717251,
          -28.50416840889539
        ]
      }
    },
    {
      "type": "Feature",
      "properties": {
        "norad_id": 34508,
        "name": "IRIDIUM 33 DEB",
        "group": "iridium-33-debris",
        "lat": 38.97811962384332,
        "lon": 109.11867959901923,
        "alt_km": 805.4381257084724,
        "timestamp": "2025-12-04T09:47:37.904999+00:00",
        "meta_object_name": "IRIDIUM 33 DEB",
        "meta_object_id": "1997-051GZ",
        "meta_epoch": "2025-12-03T18:34:58.618848",
        "meta_mean_motion": 14.38282153,
        "meta_eccentricity": 0.0065497,
        "meta_inclination": 86.3699,
        "meta_ra_of_asc_node": 106.4429,
        "meta_arg_of_pericenter": 202.0722,
        "meta_mean_anomaly": 157.7654,
        "meta_ephemeris_type": 0,
        "meta_classification_type": "U",
        "meta_norad_cat_id": 34508,
        "meta_element_set_no": 999,
        "meta_rev_at_epoch": 87180,
        "meta_bstar": 0.002633055,
        "meta_mean_motion_dot": 8.231e-05,
        "meta_mean_motion_ddot": 0,
        "tle_line1": "1 34508U 97051GZ  25337.77428957  .00008231  00000+0  26331-2 0  9991",
        "tle_line2": "2 34508  86.3699 106.4429 0065497 202.0722 157.7654 14.38282153871801"
      },
      "geometry": {
        "type": "Point",
        "coordinates": [
          109.11867959901923,
          38.97811962384332
        ]
      }
    },
    {
      "type": "Feature",
      "properties": {
        "norad_id": 34521,
        "name": "IRIDIUM 33 DEB",
        "group": "iridium-33-debris",
        "lat": -10.269715952546854,
        "lon": -145.12714382206045,
        "alt_km": 687.1708054656247,
        "timestamp": "2025-12-04T09:47:37.905009+00:00",
        "meta_object_name": "IRIDIUM 33 DEB",
        "meta_object_id": "1997-051HN",
        "meta_epoch": "2025-12-03T14:52:24.138048",
        "meta_mean_motion": 14.63228778,
        "meta_eccentricity": 0.00011177,
        "meta_inclination": 86.3812,
        "meta_ra_of_asc_node": 34.5626,
        "meta_arg_of_pericenter": 291.1888,
        "meta_mean_anomaly": 68.9204,
        "meta_ephemeris_type": 0,
        "meta_classification_type": "U",
        "meta_norad_cat_id": 34521,
        "meta_element_set_no": 999,
        "meta_rev_at_epoch": 88339,
        "meta_bstar": 0.0014436167,
        "meta_mean_motion_dot": 7.457e-05,
        "meta_mean_motion_ddot": 0,
        "tle_line1": "1 34521U 97051HN  25337.61972382  .00007457  00000+0  14436-2 0  9997",
        "tle_line2": "2 34521  86.3812  34.5626 0001117 291.1888  68.9204 14.63228778883396"
      },
      "geometry": {
        "type": "Point",
        "coordinates": [
          -145.12714382206045,
          -10.269715952546854
        ]
      }
    },
    {
      "type": "Feature",
      "properties": {
        "norad_id": 34525,
        "name": "IRIDIUM 33 DEB",
        "group": "iridium-33-debris",
        "lat": -80.15289433946667,
        "lon": -108.1711047670694,
        "alt_km": 760.3419193954969,
        "timestamp": "2025-12-04T09:47:37.905037+00:00",
        "meta_object_name": "IRIDIUM 33 DEB",
        "meta_object_id": "1997-051HS",
        "meta_epoch": "2025-12-03T12:55:13.156608",
        "meta_mean_motion": 14.42867525,
        "meta_eccentricity": 0.00064393,
        "meta_inclination": 86.3737,
        "meta_ra_of_asc_node": 50.7706,
        "meta_arg_of_pericenter": 116.2069,
        "meta_mean_anomaly": 309.7811,
        "meta_ephemeris_type": 0,
        "meta_classification_type": "U",
        "meta_norad_cat_id": 34525,
        "meta_element_set_no": 999,
        "meta_rev_at_epoch": 87955,
        "meta_bstar": 0.00057232393,
        "meta_mean_motion_dot": 1.93e-05,
        "meta_mean_motion_ddot": 0,
        "tle_line1": "1 34525U 97051HS  25337.53834672  .00001930  00000+0  57232-3 0  9993",
        "tle_line2": "2 34525  86.3737  50.7706 0006439 116.2069 309.7811 14.42867525879554"
      },
      "geometry": {
        "type": "Point",
        "coordinates": [
          -108.1711047670694,
          -80.15289433946667
        ]
      }
    },
    {
      "type": "Feature",
      "properties": {
        "norad_id": 34529,
        "name": "IRIDIUM 33 DEB",
        "group": "iridium-33-debris",
        "lat": -43.82483325741231,
        "lon": -137.53867192439907,
        "alt_km": 760.7566079436956,
        "timestamp": "2025-12-04T09:47:37.905047+00:00",
        "meta_object_name": "IRIDIUM 33 DEB",
        "meta_object_id": "1997-051HW",
        "meta_epoch": "2025-12-03T04:25:06.115584",
        "meta_mean_motion": 14.40603135,
        "meta_eccentricity": 0.00036637,
        "meta_inclination": 86.3649,
        "meta_ra_of_asc_node": 39.4847,
        "meta_arg_of_pericenter": 211.6368,
        "meta_mean_anomaly": 148.4612,
        "meta_ephemeris_type": 0,
        "meta_classification_type": "U",
        "meta_norad_cat_id": 34529,
        "meta_element_set_no": 999,
        "meta_rev_at_epoch": 88004,
        "meta_bstar": 0.00016704296,
        "meta_mean_motion_dot": 5.52e-06,
        "meta_mean_motion_ddot": 0,
        "tle_line1": "1 34529U 97051HW  25337.18409856  .00000552  00000+0  16704-3 0  9998",
        "tle_line2": "2 34529  86.3649  39.4847 0003663 211.6368 148.4612 14.40603135880044"
      },
      "geometry": {
        "type": "Point",
        "coordinates": [
          -137.53867192439907,
          -43.82483325741231
        ]
      }
    },
    {
      "type": "Feature",
      "properties": {
        "norad_id": 34538,
        "name": "IRIDIUM 33 DEB",
        "group": "iridium-33-debris",
        "lat": 0.9253763061986212,
        "lon": 9.26611113721461,
        "alt_km": 728.8611107839906,
        "timestamp": "2025-12-04T09:47:37.905058+00:00",
        "meta_object_name": "IRIDIUM 33 DEB",
        "meta_object_id": "1997-051JF",
        "meta_epoch": "2025-12-03T20:43:39.389376",
        "meta_mean_motion": 14.42564801,
        "meta_eccentricity": 0.00339216,
        "meta_inclination": 86.2783,
        "meta_ra_of_asc_node": 9.4441,
        "meta_arg_of_pericenter": 357.8876,
        "meta_mean_anomaly": 57.5805,
        "meta_ephemeris_type": 0,
        "meta_classification_type": "U",
        "meta_norad_cat_id": 34538,
        "meta_element_set_no": 999,
        "meta_rev_at_epoch": 87628,
        "meta_bstar": 0.0017800791,
        "meta_mean_motion_dot": 5.966e-05,
        "meta_mean_motion_ddot": 0,
        "tle_line1": "1 34538U 97051JF  25337.86365034  .00005966  00000+0  17801-2 0  9994",
        "tle_line2": "2 34538  86.2783   9.4441 0033921 357.8876  57.5805 14.42564801876289"
      },
      "geometry": {
        "type": "Point",
        "coordinates": [
          9.26611113721461,
          0.9253763061986212
        ]
      }
    }
  ]
}